0 OPS 4467 A
1 00812U 64031A   13282.46063449  .00000086  00000-0  61184-4 0  8062
2 00812 099.7712 200.8861 0006476 103.3922 309.6893 14.23494306557311
0 OPS 4467 A
1 00812U 64031A   13283.79949211  .00000064  00000-0  51500-4 0  8077
2 00812 099.7714 202.3717 0006494 099.9827 330.4282 14.23494780557505
0 OPS 4467 A
1 00812U 64031A   13286.46699708  .00000085  00000-0  60897-4 0  8091
2 00812 099.7718 205.3314 0006475 093.4814 319.3042 14.23495087557881
0 OPS 4467 A
1 00812U 64031A   13287.73344166  .00000097  00000-0  66048-4 0  8106
2 00812 099.7720 206.7366 0006461 090.4416 328.7948 14.23495659558061
0 OPS 4467 A
1 00812U 64031A   13289.07984399  .00000125  00000-0  78374-4 0  8111
2 00812 099.7721 208.2306 0006487 087.1162 028.1027 14.23496186558258
0 OPS 4467 A
1 00812U 64031A   13290.13323025  .00000138  00000-0  84163-4 0  8121
2 00812 099.7721 209.3995 0006481 084.6046 025.8330 14.23496411558400
0 OPS 4467 A
1 00812U 64031A   13291.45760701  .00000123  00000-0  77448-4 0  8136
2 00812 099.7721 210.8693 0006455 081.4033 332.2082 14.23497012558591
0 OPS 4467 A
1 00812U 64031A   13292.79560514  .00000120  00000-0  76060-4 0  8141
2 00812 099.7721 212.3541 0006427 078.0588 348.4954 14.23497491558785
0 OPS 4467 A
1 00812U 64031A   13294.13822451  .00000154  00000-0  91236-4 0  8152
2 00812 099.7721 213.8441 0006411 074.7708 028.3991 14.23497936558970
0 OPS 4467 A
1 00812U 64031A   13295.19243466  .00000153  00000-0  90622-4 0  8160
2 00812 099.7721 215.0140 0006381 072.1846 030.4292 14.23498433559120
